{"type": "FeatureCollection", "features": [ {"type": "Feature", "properties": {"norad_id": 38552, "name": "METEOSAT-10 (MSG-3)", "group": "weather", "lat": 4.225920152766538, "lon": 153.71020024268927, "alt_km": 35787.99161482867, "timestamp": "2025-12-10T04:57:29.249304+00:00", "meta": {"OBJECT_NAME": "METEOSAT-10 (MSG-3)", "OBJECT_ID": "2012-035B", "EPOCH": "2025-12-09T01:35:17.617632", "MEAN_MOTION": 1.0027383, "ECCENTRICITY": 8.734e-05, "INCLINATION": 4.2204, "RA_OF_ASC_NODE": 61.7307, "ARG_OF_PERICENTER": 239.048, "MEAN_ANOMALY": 161.2485, "EPHEMERIS_TYPE": 0, "CLASSIFICATION_TYPE": "U", "NORAD_CAT_ID": 38552, "ELEMENT_SET_NO": 999, "REV_AT_EPOCH": 4895, "BSTAR": 0, "MEAN_MOTION_DOT": -5e-08, "MEAN_MOTION_DDOT": 0}, "tle": {"line1": "1 38552U 12035B   25343.06617613 -.00000005  00000+0  00000+0 0  9995", "line2": "2 38552   4.2204  61.7307 0000873 239.0480 161.2485  1.00273830 48952"}}, "geometry": {"type": "Point", "coordinates": [153.71020024268927, 4.225920152766538]}}, {"type": "Feature", "properties": {"norad_id": 38771, "name": "METOP-B", "group": "weather", "lat": 80.87870466573895, "lon": -73.71092830850846, "alt_km": 812.0412019602054, "timestamp": "2025-12-10T04:57:29.249315+00:00", "meta": {"OBJECT_NAME": "METOP-B", "OBJECT_ID": "2012-049A", "EPOCH": "2025-12-09T18:23:11.920416", "MEAN_MOTION": 14.21406871, "ECCENTRICITY": 0.0002787, "INCLINATION": 98.6803, "RA_OF_ASC_NODE": 33.7752, "ARG_OF_PERICENTER": 150.5017, "MEAN_ANOMALY": 209.6318, "EPHEMERIS_TYPE": 0, "CLASSIFICATION_TYPE": "U", "NORAD_CAT_ID": 38771, "ELEMENT_SET_NO": 999, "REV_AT_EPOCH": 68635, "BSTAR": 0.00013942, "MEAN_MOTION_DOT": 2.61e-06, "MEAN_MOTION_DDOT": 0}, "tle": {"line1": "1 38771U 12049A   25343.76611019  .00000261  00000+0  13942-3 0  9990", "line2": "2 38771  98.6803  33.7752 0002787 150.5017 209.6318 14.21406871686353"}}, "geometry": {"type": "Point", "coordinates": [-73.71092830850846, 80.87870466573895]}}, {"type": "Feature", "properties": {"norad_id": 39216, "name": "INSAT-3D", "group": "weather", "lat": -0.4642602186485884, "lon": -76.89332799365937, "alt_km": 35780.737221572024, "timestamp": "2025-12-10T04:57:29.249327+00:00", "meta": {"OBJECT_NAME": "INSAT-3D", "OBJECT_ID": "2013-038B", "EPOCH": "2025-12-09T14:14:51.430848", "MEAN_MOTION": 1.00271179, "ECCENTRICITY": 0.0001637, "INCLINATION": 1.437, "RA_OF_ASC_NODE": 85.0215, "ARG_OF_PERICENTER": 162.82, "MEAN_ANOMALY": 174.0005, "EPHEMERIS_TYPE": 0, "CLASSIFICATION_TYPE": "U", "NORAD_CAT_ID": 39216, "ELEMENT_SET_NO": 999, "REV_AT_EPOCH": 4517, "BSTAR": 0, "MEAN_MOTION_DOT": -3.36e-06, "MEAN_MOTION_DDOT": 0}, "tle": {"line1": "1 39216U 13038B   25343.59365082 -.00000336  00000+0  00000+0 0  9992", "line2": "2 39216   1.4370  85.0215 0001637 162.8200 174.0005  1.00271179 45177"}}, "geometry": {"type": "Point", "coordinates": [-76.89332799365937, -0.4642602186485884]}}, {"type": "Feature", "properties": {"norad_id": 39260, "name": "FENGYUN 3C", "group": "weather", "lat": 31.3824394818045, "lon": -43.2091559848903, "alt_km": 848.2341965561118, "timestamp": "2025-12-10T04:57:29.249338+00:00", "meta": {"OBJECT_NAME": "FENGYUN 3C", "OBJECT_ID": "2013-052A", "EPOCH": "2025-12-09T22:01:23.386656", "MEAN_MOTION": 14.15695092, "ECCENTRICITY": 0.0014126, "INCLINATION": 98.476, "RA_OF_ASC_NODE": 321.7348, "ARG_OF_PERICENTER": 204.4213, "MEAN_ANOMALY": 155.6294, "EPHEMERIS_TYPE": 0, "CLASSIFICATION_TYPE": "U", "NORAD_CAT_ID": 39260, "ELEMENT_SET_NO": 999, "REV_AT_EPOCH": 63178, "BSTAR": 0.00014179, "MEAN_MOTION_DOT": 2.37e-06, "MEAN_MOTION_DDOT": 0}, "tle": {"line1": "1 39260U 13052A   25343.91763179  .00000237  00000+0  14179-3 0  9997", "line2": "2 39260  98.4760 321.7348 0014126 204.4213 155.6294 14.15695092631783"}}, "geometry": {"type": "Point", "coordinates": [-43.2091559848903, 31.3824394818045]}}, {"type": "Feature", "properties": {"norad_id": 40069, "name": "METEOR-M 2", "group": "weather", "lat": -38.14560664975838, "lon": -31.375283442838214, "alt_km": 827.8391501690867, "timestamp": "2025-12-10T04:57:29.249349+00:00", "meta": {"OBJECT_NAME": "METEOR-M 2", "OBJECT_ID": "2014-037A", "EPOCH": "2025-12-09T20:41:32.644896", "MEAN_MOTION": 14.21384039, "ECCENTRICITY": 0.0004873, "INCLINATION": 98.4901, "RA_OF_ASC_NODE": 321.5565, "ARG_OF_PERICENTER": 219.5249, "MEAN_ANOMALY": 140.5574, "EPHEMERIS_TYPE": 0, "CLASSIFICATION_TYPE": "U", "NORAD_CAT_ID": 40069, "ELEMENT_SET_NO": 999, "REV_AT_EPOCH": 59242, "BSTAR": 9.893e-05, "MEAN_MOTION_DOT": 1.74e-06, "MEAN_MOTION_DDOT": 0}, "tle": {"line1": "1 40069U 14037A   25343.86218339  .00000174  00000+0  98930-4 0  9995", "line2": "2 40069  98.4901 321.5565 0004873 219.5249 140.5574 14.21384039592426"}}, "geometry": {"type": "Point", "coordinates": [-31.375283442838214, -38.14560664975838]}}, {"type": "Feature", "properties": {"norad_id": 40267, "name": "HIMAWARI-8", "group": "weather", "lat": 0.006971281118927417, "lon": -65.78660664065852, "alt_km": 35781.17667523547, "timestamp": "2025-12-10T04:57:29.249361+00:00", "meta": {"OBJECT_NAME": "HIMAWARI-8", "OBJECT_ID": "2014-060A", "EPOCH": "2025-12-09T14:54:38.529792", "MEAN_MOTION": 1.00270615, "ECCENTRICITY": 0.0001257, "INCLINATION": 0.0337, "RA_OF_ASC_NODE": 213.2243, "ARG_OF_PERICENTER": 84.448, "MEAN_ANOMALY": 145.2594, "EPHEMERIS_TYPE": 0, "CLASSIFICATION_TYPE": "U", "NORAD_CAT_ID": 40267, "ELEMENT_SET_NO": 999, "REV_AT_EPOCH": 4085, "BSTAR": 0, "MEAN_MOTION_DOT": -2.73e-06, "MEAN_MOTION_DDOT": 0}, "tle": {"line1": "1 40267U 14060A   25343.62127928 -.00000273  00000+0  00000+0 0  9995", "line2": "2 40267   0.0337 213.2243 0001257  84.4480 145.2594  1.00270615 40853"}}, "geometry": {"type": "Point", "coordinates": [-65.78660664065852, 0.006971281118927417]}}, {"type": "Feature", "properties": {"norad_id": 40367, "name": "FENGYUN 2G", "group": "weather", "lat": 0.15881628325858305, "lon": -106.84636769304129, "alt_km": 35775.38544962902, "timestamp": "2025-12-10T04:57:29.249373+00:00", "meta": {"OBJECT_NAME": "FENGYUN 2G", "OBJECT_ID": "2014-090A", "EPOCH": "2025-12-09T19:11:01.159872", "MEAN_MOTION": 1.00264939, "ECCENTRICITY": 0.0003084, "INCLINATION": 5.1606, "RA_OF_ASC_NODE": 75.1277, "ARG_OF_PERICENTER": 192.3246, "MEAN_ANOMALY": 198.6902, "EPHEMERIS_TYPE": 0, "CLASSIFICATION_TYPE": "U", "NORAD_CAT_ID": 40367, "ELEMENT_SET_NO": 999, "REV_AT_EPOCH": 4010, "BSTAR": 0, "MEAN_MOTION_DOT": -2.99e-06, "MEAN_MOTION_DDOT": 0}, "tle": {"line1": "1 40367U 14090A   25343.79931898 -.00000299  00000+0  00000+0 0  9994", "line2": "2 40367   5.1606  75.1277 0003084 192.3246 198.6902  1.00264939 40105"}}, "geometry": {"type": "Point", "coordinates": [-106.84636769304129, 0.15881628325858305]}}, {"type": "Feature", "properties": {"norad_id": 40732, "name": "METEOSAT-11 (MSG-4)", "group": "weather", "lat": 2.7301392002566214, "lon": 162.88594195707003, "alt_km": 35783.66470321021, "timestamp": "2025-12-10T04:57:29.249385+00:00", "meta": {"OBJECT_NAME": "METEOSAT-11 (MSG-4)", "OBJECT_ID": "2015-034A", "EPOCH": "2025-12-09T05:03:28.023264", "MEAN_MOTION": 1.00266394, "ECCENTRICITY": 9.7e-05, "INCLINATION": 2.7265, "RA_OF_ASC_NODE": 72.0117, "ARG_OF_PERICENTER": 121.8112, "MEAN_ANOMALY": 329.5993, "EPHEMERIS_TYPE": 0, "CLASSIFICATION_TYPE": "U", "NORAD_CAT_ID": 40732, "ELEMENT_SET_NO": 999, "REV_AT_EPOCH": 531, "BSTAR": 0, "MEAN_MOTION_DOT": 6.3e-07, "MEAN_MOTION_DDOT": 0}, "tle": {"line1": "1 40732U 15034A   25343.21074101  .00000063  00000+0  00000+0 0  9999", "line2": "2 40732   2.7265  72.0117 0000970 121.8112 329.5993  1.00266394  5310"}}, "geometry": {"type": "Point", "coordinates": [162.88594195707003, 2.7301392002566214]}}, {"type": "Feature", "properties": {"norad_id": 41105, "name": "ELEKTRO-L 2", "group": "weather", "lat": 5.698302385526514, "lon": 138.89750413749104, "alt_km": 35796.33702747649, "timestamp": "2025-12-10T04:57:29.249397+00:00", "meta": {"OBJECT_NAME": "ELEKTRO-L 2", "OBJECT_ID": "2015-074A", "EPOCH": "2025-12-09T01:31:10.511904", "MEAN_MOTION": 1.00271905, "ECCENTRICITY": 0.00038363, "INCLINATION": 6.2161, "RA_OF_ASC_NODE": 72.8685, "ARG_OF_PERICENTER": 198.9202, "MEAN_ANOMALY": 174.5582, "EPHEMERIS_TYPE": 0, "CLASSIFICATION_TYPE": "U", "NORAD_CAT_ID": 41105, "ELEMENT_SET_NO": 999, "REV_AT_EPOCH": 3660, "BSTAR": 0, "MEAN_MOTION_DOT": -1.16e-06, "MEAN_MOTION_DDOT": 0}, "tle": {"line1": "1 41105U 15074A   25343.06331611 -.00000116  00000+0  00000+0 0  9993", "line2": "2 41105   6.2161  72.8685 0003836 198.9202 174.5582  1.00271905 36608"}}, "geometry": {"type": "Point", "coordinates": [138.89750413749104, 5.698302385526514]}}, {"type": "Feature", "properties": {"norad_id": 41752, "name": "INSAT-3DR", "group": "weather", "lat": 0.03411309136345925, "lon": -132.5547354428026, "alt_km": 35741.381506063626, "timestamp": "2025-12-10T04:57:29.249409+00:00", "meta": {"OBJECT_NAME": "INSAT-3DR", "OBJECT_ID": "2016-054A", "EPOCH": "2025-12-09T17:50:38.679072", "MEAN_MOTION": 1.00270393, "ECCENTRICITY": 0.0014498, "INCLINATION": 0.0847, "RA_OF_ASC_NODE": 86.6006, "ARG_OF_PERICENTER": 183.6982, "MEAN_ANOMALY": 150.0977, "EPHEMERIS_TYPE": 0, "CLASSIFICATION_TYPE": "U", "NORAD_CAT_ID": 41752, "ELEMENT_SET_NO": 999, "REV_AT_EPOCH": 3391, "BSTAR": 0, "MEAN_MOTION_DOT": -7.4e-07, "MEAN_MOTION_DDOT": 0}, "tle": {"line1": "1 41752U 16054A   25343.74350323 -.00000074  00000+0  00000+0 0  9999", "line2": "2 41752   0.0847  86.6006 0014498 183.6982 150.0977  1.00270393 33919"}}, "geometry": {"type": "Point", "coordinates": [-132.5547354428026, 0.03411309136345925]}}]}